NORAD_CAT_ID,OBJECT_NAME,OBJECT_TYPE,EPOCH,MEAN_MOTION,ECCENTRICITY,INCLINATION,RA_OF_ASC_NODE,ARG_OF_PERICENTER,MEAN_ANOMALY,BSTAR,MEAN_MOTION_DOT,MEAN_MOTION_DDOT,TLE_LINE0,TLE_LINE1,TLE_LINE2,SEMIMAJOR_AXIS,PERIOD,APOGEE,PERIGEE,DECAYED
55934.0,STARLINK-5927,PAYLOAD,2024-04-11 03:05:15,14.98328097,0.0002946,70.0,243.1973,271.1839,88.8983,-2.8305e-06,-1.27e-06,0.0,0 STARLINK-5927,1 55934U 23037W   24102.12864898 -.00000127  00000-0 -28305-5 0  9991,2 55934  70.0000 243.1973 0002946 271.1839  88.8983 14.98328097 59836,6950.199,96.107,574.111,570.016,0.0
55934.0,STARLINK-5927,PAYLOAD,2024-04-11 14:18:11,14.98331341,0.0002998,70.0002,242.0191,271.1427,88.9389,3.5609e-05,3.32e-06,0.0,0 STARLINK-5927,1 55934U 23037W   24102.59596556  .00000332  00000-0  35609-4 0  9995,2 55934  70.0002 242.0191 0002998 271.1427  88.9389 14.98331341 59565,6950.189,96.107,574.137,569.97,0.0
55934.0,STARLINK-5927,PAYLOAD,2024-04-11 19:06:35,14.98335004,0.0003005,70.0,241.514,270.9725,89.1089,5.426e-05,5.55e-06,0.0,0 STARLINK-5927,1 55934U 23037W   24102.79624218  .00000555  00000-0  54260-4 0  9995,2 55934  70.0000 241.5140 0003005 270.9725  89.1089 14.98335004 59930,6950.177,96.107,574.131,569.954,0.0
55934.0,STARLINK-5927,PAYLOAD,2024-04-12 12:44:04,14.98326605,0.0003011,70.0006,239.6628,270.9109,89.1705,4.0789e-05,3.94e-06,0.0,0 STARLINK-5927,1 55934U 23037W   24103.53060746  .00000394  00000-0  40789-4 0  9990,2 55934  70.0006 239.6628 0003011 270.9109  89.1705 14.98326605 60044,6950.203,96.107,574.161,569.976,0.0
55934.0,STARLINK-5927,PAYLOAD,2024-04-12 14:20:12,14.9832688,0.0003011,70.0006,239.4945,270.9082,89.1732,4.2588e-05,4.15e-06,0.0,0 STARLINK-5927,1 55934U 23037W   24103.59736734  .00000415  00000-0  42588-4 0  9996,2 55934  70.0006 239.4945 0003011 270.9082  89.1732 14.98326880 59711,6950.203,96.107,574.16,569.975,0.0
55934.0,STARLINK-5927,PAYLOAD,2024-04-13 12:46:05,14.98330968,0.0002955,70.0006,237.138,270.8177,89.2644,-3.8897e-05,-5.57e-06,0.0,0 STARLINK-5927,1 55934U 23037W   24104.53200680 -.00000557  00000-0 -38897-4 0  9994,2 55934  70.0006 237.1380 0002955 270.8177  89.2644 14.98330968 60198,6950.19,96.107,574.109,570.001,0.0
55934.0,STARLINK-5927,PAYLOAD,2024-04-13 14:22:13,14.98330554,0.0003011,70.0006,236.9698,270.8562,89.2252,-2.8597e-05,-4.34e-06,0.0,0 STARLINK-5927,1 55934U 23037W   24104.59876666 -.00000434  00000-0 -28597-4 0  9993,2 55934  70.0006 236.9698 0003011 270.8562  89.2252 14.98330554 59867,6950.191,96.107,574.149,569.963,0.0
55934.0,STARLINK-5927,PAYLOAD,2024-04-13 19:10:36,14.98364353,0.0003047,70.0007,236.4649,269.7841,90.2969,-0.00050937,-6.171e-05,0.0,0 STARLINK-5927,1 55934U 23037W   24104.79903542 -.00006171  00000-0 -50937-3 0  9995,2 55934  70.0007 236.4649 0003047 269.7841  90.2969 14.98364353 60239,6950.087,96.105,574.069,569.834,0.0
55934.0,STARLINK-5927,PAYLOAD,2024-04-14 12:48:06,14.98330584,0.0002905,70.0009,234.6137,272.3443,87.7383,-2.7917e-07,-9.6e-07,0.0,0 STARLINK-5927,1 55934U 23037W   24105.53340458 -.00000096  00000-0 -27917-6 0  9994,2 55934  70.0009 234.6137 0002905 272.3443  87.7383 14.98330584 60345,6950.191,96.107,574.075,570.037,0.0
55934.0,STARLINK-5927,PAYLOAD,2024-04-14 17:36:30,14.98331371,0.0002727,70.0016,234.1095,270.6741,89.4106,9.3269e-05,1.02e-05,0.0,0 STARLINK-5927,1 55934U 23037W   24105.73368121  .00001020  00000-0  93269-4 0  9990,2 55934  70.0016 234.1095 0002727 270.6741  89.4106 14.98331371 60038,6950.189,96.107,573.949,570.158,0.0
55934.0,STARLINK-5927,PAYLOAD,2024-04-15 12:50:04,14.98348901,0.000301,70.0035,232.0922,273.6587,86.4228,0.00019369,2.22e-05,0.0,0 STARLINK-5927,1 55934U 23037W   24106.53477626  .00002220  00000-0  19369-3 0  9991,2 55934  70.0035 232.0922 0003010 273.6587  86.4228 14.98348901 60491,6950.134,96.106,574.091,569.907,0.0
55934.0,STARLINK-5927,PAYLOAD,2024-04-15 14:26:15,14.98314192,0.0002845,70.0018,231.9218,264.371,95.7125,-0.00019562,-2.425e-05,0.0,0 STARLINK-5927,1 55934U 23037W   24106.60156818 -.00002425  00000-0 -19562-3 0  9990,2 55934  70.0018 231.9218 0002845 264.3710  95.7125 14.98314192 60166,6950.242,96.108,574.084,570.129,0.0
55934.0,STARLINK-5927,PAYLOAD,2024-04-15 19:14:39,14.98317554,0.0002793,70.0019,231.4168,258.7502,101.3343,-0.00015755,-1.972e-05,0.0,0 STARLINK-5927,1 55934U 23037W   24106.80184555 -.00001972  00000-0 -15755-3 0  9997,2 55934  70.0019 231.4168 0002793 258.7502 101.3343 14.98317554 60536,6950.231,96.108,574.038,570.155,0.0
55934.0,STARLINK-5927,PAYLOAD,2024-04-16 14:28:15,14.98329655,0.0003265,70.0001,229.3949,271.2528,88.8256,-8.9255e-05,-1.158e-05,0.0,0 STARLINK-5927,1 55934U 23037W   24107.60295799 -.00001158  00000-0 -89255-4 0  9992,2 55934  70.0001 229.3949 0003265 271.2528  88.8256 14.98329655 60316,6950.194,96.107,574.328,569.79,0.0
55934.0,STARLINK-5927,PAYLOAD,2024-04-16 17:40:31,14.98337417,0.0003147,70.001,229.059,270.1347,89.9452,8.536e-07,-8.3e-07,0.0,0 STARLINK-5927,1 55934U 23037W   24107.73647047 -.00000083  00000-0  85360-6 0  9993,2 55934  70.0010 229.0590 0003147 270.1347  89.9452 14.98337417 60675,6950.17,96.107,574.222,569.848,0.0
55934.0,STARLINK-5927,PAYLOAD,2024-04-17 12:54:09,14.9832817,0.000279,70.003,227.0414,260.9987,99.0856,-0.00038591,-4.694e-05,0.0,0 STARLINK-5927,1 55934U 23037W   24108.53760712 -.00004694  00000-0 -38591-3 0  9991,2 55934  70.0030 227.0414 0002790 260.9987  99.0856 14.98328170 60799,6950.199,96.107,574.003,570.124,0.0
55934.0,STARLINK-5927,PAYLOAD,2024-04-17 14:30:17,14.98329186,0.0002849,70.0021,226.8724,261.2172,98.8664,-0.00034399,-4.195e-05,0.0,0 STARLINK-5927,1 55934U 23037W   24108.60436534 -.00004195  00000-0 -34399-3 0  9999,2 55934  70.0021 226.8724 0002849 261.2172  98.8664 14.98329186 60461,6950.195,96.107,574.041,570.08,0.0
55934.0,STARLINK-5927,PAYLOAD,2024-04-17 17:42:32,14.98331642,0.0003031,70.002,226.5366,263.3255,96.7559,-0.00025252,-3.105e-05,0.0,0 STARLINK-5927,1 55934U 23037W   24108.73788137 -.00003105  00000-0 -25252-3 0  9990,2 55934  70.0020 226.5366 0003031 263.3255  96.7559 14.98331642 60480,6950.188,96.107,574.159,569.946,0.0
55934.0,STARLINK-5927,PAYLOAD,2024-04-18 11:20:01,14.9832447,0.0003012,70.0015,224.6842,264.2401,95.8414,0.00016253,1.847e-05,0.0,0 STARLINK-5927,1 55934U 23037W   24109.47224032  .00001847  00000-0  16253-3 0  9991,2 55934  70.0015 224.6842 0003012 264.2401  95.8414 14.98324470 60597,6950.21,96.107,574.168,569.982,0.0
55934.0,STARLINK-5927,PAYLOAD,2024-04-18 17:44:33,14.98332454,0.0002991,70.0017,224.0129,259.5309,100.5513,0.00017979,2.053e-05,0.0,0 STARLINK-5927,1 55934U 23037W   24109.73927497  .00002053  00000-0  17979-3 0  9991,2 55934  70.0017 224.0129 0002991 259.5309 100.5513 14.98332454 60977,6950.185,96.107,574.129,569.972,0.0
55934.0,STARLINK-5927,PAYLOAD,2024-04-19 11:22:03,14.9832096,0.0002401,70.0033,222.1603,242.0878,118.0038,0.00012324,1.378e-05,0.0,0 STARLINK-5927,1 55934U 23037W   24110.47364617  .00001378  00000-0  12324-3 0  9991,2 55934  70.0033 222.1603 0002401 242.0878 118.0038 14.98320960 61083,6950.221,96.108,573.755,570.417,0.0
55934.0,STARLINK-5927,PAYLOAD,2024-04-19 14:34:18,14.98323406,0.000238,70.0029,221.8228,238.7784,121.3142,0.00014069,1.586e-05,0.0,0 STARLINK-5927,1 55934U 23037W   24110.60716402  .00001586  00000-0  14069-3 0  9998,2 55934  70.0029 221.8228 0002380 238.7784 121.3142 14.98323406 60766,6950.213,96.107,573.732,570.424,0.0
55934.0,STARLINK-5927,PAYLOAD,2024-04-19 17:46:34,14.98336658,0.0003071,70.0017,221.4911,244.9343,115.1497,0.00017729,2.023e-05,0.0,0 STARLINK-5927,1 55934U 23037W   24110.74067274  .00002023  00000-0  17729-3 0  9992,2 55934  70.0017 221.4911 0003071 244.9343 115.1497 14.98336658 61124,6950.172,96.107,574.172,569.903,0.0
55934.0,STARLINK-5927,PAYLOAD,2024-04-20 13:00:11,14.98333068,0.0002234,70.0036,219.4682,245.1136,114.9791,4.2855e-06,-4.2e-07,0.0,0 STARLINK-5927,1 55934U 23037W   24111.54179939 -.00000042  00000-0  42855-5 0  9993,2 55934  70.0036 219.4682 0002234 245.1136 114.9791 14.98333068 61249,6950.183,96.107,573.601,570.496,0.0
55934.0,STARLINK-5927,PAYLOAD,2024-04-20 14:36:19,14.98333493,0.0002226,70.0036,219.2999,245.0168,115.076,8.6811e-06,1.1e-07,0.0,0 STARLINK-5927,1 55934U 23037W   24111.60855877  .00000011  00000-0  86811-5 0  9997,2 55934  70.0036 219.2999 0002226 245.0168 115.0760 14.98333493 60916,6950.182,96.107,573.594,570.5,0.0
55934.0,STARLINK-5927,PAYLOAD,2024-04-20 17:48:35,14.98334629,0.0002295,70.0036,218.9628,246.4994,113.5924,4.7103e-05,4.69e-06,0.0,0 STARLINK-5927,1 55934U 23037W   24111.74207643  .00000469  00000-0  47103-4 0  9991,2 55934  70.0036 218.9628 0002295 246.4994 113.5924 14.98334629 60938,6950.179,96.107,573.639,570.449,0.0
55934.0,STARLINK-5927,PAYLOAD,2024-04-21 14:38:21,14.98314809,0.0002428,70.0029,216.7742,246.1375,113.953,-0.00012555,-1.59e-05,0.0,0 STARLINK-5927,1 55934U 23037W   24112.60997433 -.00001590  00000-0 -12555-3 0  9990,2 55934  70.0029 216.7742 0002428 246.1375 113.9530 14.98314809 61061,6950.24,96.108,573.792,570.417,0.0
55934.0,STARLINK-5927,PAYLOAD,2024-04-21 16:14:29,14.98315091,0.0002488,70.0037,216.6081,243.1863,116.9042,-0.00010163,-1.305e-05,0.0,0 STARLINK-5927,1 55934U 23037W   24112.67673429 -.00001305  00000-0 -10163-3 0  9990,2 55934  70.0037 216.6081 0002488 243.1863 116.9042 14.98315091 61414,6950.239,96.108,573.833,570.375,0.0
55934.0,STARLINK-5927,PAYLOAD,2024-04-22 09:51:57,14.98329744,0.0002782,70.0014,214.7533,263.1485,96.9357,-2.7305e-05,-4.19e-06,0.0,0 STARLINK-5927,1 55934U 23037W   24113.41108390 -.00000419  00000-0 -27305-4 0  9995,2 55934  70.0014 214.7533 0002782 263.1485  96.9357 14.98329744 61527,6950.194,96.107,573.992,570.125,0.0
55934.0,STARLINK-5927,PAYLOAD,2024-04-22 16:16:29,14.9833706,0.0002687,70.002,214.0819,258.6905,101.3952,8.2804e-05,8.95e-06,0.0,0 STARLINK-5927,1 55934U 23037W   24113.67811562  .00000895  00000-0  82804-4 0  9996,2 55934  70.0020 214.0819 0002687 258.6905 101.3952 14.98337060 61560,6950.171,96.107,573.904,570.169,0.0
